start=new Date('2022-12-17T00:00:00.000Z').valueOf();
sats=[{"NORAD_CAT_ID":"45661","SITE":"AFETR","MEAN_ANOMALY":"304.2007","TIME_SYSTEM":"UTC","RCS_SIZE":"LARGE","EPOCH":"2022-12-16T15:47:08.932128","COUNTRY_CODE":"US","MEAN_MOTION":"15.06392129","APOAPSIS":"548.340","LAUNCH_DATE":"2020-06-04","MEAN_ELEMENT_THEORY":"SGP4","INCLINATION":"53.0546","DECAY_DATE":null,"PERIOD":"95.593","TLE_LINE1":"1 45661U 20035E   22350.65774227 -.00000999  00000-0 -48197-4 0  9996","BSTAR":"-0.00004819700000","ECCENTRICITY":"0.00015910","OBJECT_NAME":"STARLINK-1444","ARG_OF_PERICENTER":"55.9133","OBJECT_ID":"2020-035E","GP_ID":"220660049","TLE_LINE2":"2 45661  53.0546 319.5093 0001591  55.9133 304.2007 15.06392129141021","REV_AT_EPOCH":"14102","CENTER_NAME":"EARTH","CLASSIFICATION_TYPE":"U","MEAN_MOTION_DDOT":"0.0000000000000","ELEMENT_SET_NO":"999","RA_OF_ASC_NODE":"319.5093","EPHEMERIS_TYPE":"0","SEMIMAJOR_AXIS":"6925.373","OBJECT_TYPE":"PAYLOAD","MEAN_MOTION_DOT":"-0.00000999","REF_FRAME":"TEME","FILE":"3705029","PERIAPSIS":"546.136"},{"SEMIMAJOR_AXIS":"6925.339","MEAN_MOTION_DOT":"0.00000899","OBJECT_TYPE":"PAYLOAD","EPHEMERIS_TYPE":"0","PERIAPSIS":"546.080","FILE":"3702730","REF_FRAME":"TEME","REV_AT_EPOCH":"14095","CENTER_NAME":"EARTH","GP_ID":"220579919","OBJECT_ID":"2020-035F","TLE_LINE2":"2 45662  53.0550 321.5270 0001623  51.3249 308.7885 15.06403014140951","OBJECT_NAME":"STARLINK-1445","ARG_OF_PERICENTER":"51.3249","RA_OF_ASC_NODE":"321.5270","CLASSIFICATION_TYPE":"U","MEAN_MOTION_DDOT":"0.0000000000000","ELEMENT_SET_NO":"999","INCLINATION":"53.0550","MEAN_ELEMENT_THEORY":"SGP4","LAUNCH_DATE":"2020-06-04","APOAPSIS":"548.328","BSTAR":"0.00007926400000","ECCENTRICITY":"0.00016230","TLE_LINE1":"1 45662U 20035F   22350.20804740  .00000899  00000-0  79264-4 0  9998","PERIOD":"95.592","DECAY_DATE":null,"EPOCH":"2022-12-16T04:59:35.295360","SITE":"AFETR","NORAD_CAT_ID":"45662","MEAN_ANOMALY":"308.7885","TIME_SYSTEM":"UTC","RCS_SIZE":"LARGE","MEAN_MOTION":"15.06403014","COUNTRY_CODE":"US"},{"INCLINATION":"53.0575","APOAPSIS":"548.261","LAUNCH_DATE":"2020-06-04","MEAN_ELEMENT_THEORY":"SGP4","TLE_LINE1":"1 45663U 20035G   22350.60982422 -.00000164  00000-0  78567-5 0  9999","BSTAR":"0.00000785670000","ECCENTRICITY":"0.00014840","DECAY_DATE":null,"PERIOD":"95.593","TIME_SYSTEM":"UTC","SITE":"AFETR","NORAD_CAT_ID":"45663","MEAN_ANOMALY":"299.9878","RCS_SIZE":"LARGE","EPOCH":"2022-12-16T14:38:08.812608","MEAN_MOTION":"15.06393532","COUNTRY_CODE":"US","SEMIMAJOR_AXIS":"6925.368","MEAN_MOTION_DOT":"-0.00000164","OBJECT_TYPE":"PAYLOAD","EPHEMERIS_TYPE":"0","PERIAPSIS":"546.206","REF_FRAME":"TEME","FILE":"3705029","OBJECT_ID":"2020-035G","GP_ID":"220659551","TLE_LINE2":"2 45663  53.0575 319.7057 0001484  60.1258 299.9878 15.06393532141018","REV_AT_EPOCH":"14101","CENTER_NAME":"EARTH","OBJECT_NAME":"STARLINK-1446","ARG_OF_PERICENTER":"60.1258","RA_OF_ASC_NODE":"319.7057","CLASSIFICATION_TYPE":"U","ELEMENT_SET_NO":"999","MEAN_MOTION_DDOT":"0.0000000000000"},{"MEAN_MOTION_DOT":"0.00001766","OBJECT_TYPE":"PAYLOAD","SEMIMAJOR_AXIS":"6925.348","EPHEMERIS_TYPE":"0","PERIAPSIS":"546.068","REF_FRAME":"TEME","FILE":"3705029","TLE_LINE2":"2 45665  53.0546 319.5768 0001653  63.8551 296.2608 15.06400135141018","OBJECT_ID":"2020-035J","GP_ID":"220659297","CENTER_NAME":"EARTH","REV_AT_EPOCH":"14101","OBJECT_NAME":"STARLINK-1448","ARG_OF_PERICENTER":"63.8551","RA_OF_ASC_NODE":"319.5768","ELEMENT_SET_NO":"999","MEAN_MOTION_DDOT":"0.0000000000000","CLASSIFICATION_TYPE":"U","INCLINATION":"53.0546","APOAPSIS":"548.358","MEAN_ELEMENT_THEORY":"SGP4","LAUNCH_DATE":"2020-06-04","TLE_LINE1":"1 45665U 20035J   22350.64298755  .00001766  00000-0  13741-3 0  9993","ECCENTRICITY":"0.00016530","BSTAR":"0.00013741000000","DECAY_DATE":null,"PERIOD":"95.592","RCS_SIZE":"LARGE","NORAD_CAT_ID":"45665","SITE":"AFETR","TIME_SYSTEM":"UTC","MEAN_ANOMALY":"296.2608","EPOCH":"2022-12-16T15:25:54.124320","MEAN_MOTION":"15.06400135","COUNTRY_CODE":"US"},{"INCLINATION":"53.0540","MEAN_ELEMENT_THEORY":"SGP4","LAUNCH_DATE":"2020-06-04","APOAPSIS":"548.289","ECCENTRICITY":"0.00015520","BSTAR":"0.00012881000000","TLE_LINE1":"1 45666U 20035K   22350.84570875  .00001638  00000-0  12881-3 0  9994","PERIOD":"95.592","DECAY_DATE":null,"EPOCH":"2022-12-16T20:17:49.236000","RCS_SIZE":"LARGE","TIME_SYSTEM":"UTC","SITE":"AFETR","NORAD_CAT_ID":"45666","MEAN_ANOMALY":"296.9846","MEAN_MOTION":"15.06399743","COUNTRY_CODE":"US","OBJECT_TYPE":"PAYLOAD","MEAN_MOTION_DOT":"0.00001638","SEMIMAJOR_AXIS":"6925.349","EPHEMERIS_TYPE":"0","PERIAPSIS":"546.140","FILE":"3705029","REF_FRAME":"TEME","CENTER_NAME":"EARTH","REV_AT_EPOCH":"14104","TLE_LINE2":"2 45666  53.0540 318.6343 0001552  63.1302 296.9846 15.06399743141043","GP_ID":"220660549","OBJECT_ID":"2020-035K","ARG_OF_PERICENTER":"63.1302","OBJECT_NAME":"STARLINK-1449","RA_OF_ASC_NODE":"318.6343","ELEMENT_SET_NO":"999","MEAN_MOTION_DDOT":"0.0000000000000","CLASSIFICATION_TYPE":"U"},{"EPOCH":"2022-12-16T20:21:47.779488","RCS_SIZE":"LARGE","SITE":"AFETR","MEAN_ANOMALY":"301.3659","NORAD_CAT_ID":"45667","TIME_SYSTEM":"UTC","MEAN_MOTION":"15.06400368","COUNTRY_CODE":"US","INCLINATION":"53.0547","LAUNCH_DATE":"2020-06-04","MEAN_ELEMENT_THEORY":"SGP4","APOAPSIS":"548.415","ECCENTRICITY":"0.00017360","BSTAR":"0.00003485400000","TLE_LINE1":"1 45667U 20035L   22350.84846967  .00000238  00000-0  34854-4 0  9993","PERIOD":"95.592","DECAY_DATE":null,"CENTER_NAME":"EARTH","REV_AT_EPOCH":"14104","TLE_LINE2":"2 45667  53.0547 318.6822 0001736  58.7500 301.3659 15.06400368141046","GP_ID":"220660284","OBJECT_ID":"2020-035L","ARG_OF_PERICENTER":"58.7500","OBJECT_NAME":"STARLINK-1450","RA_OF_ASC_NODE":"318.6822","ELEMENT_SET_NO":"999","MEAN_MOTION_DDOT":"0.0000000000000","CLASSIFICATION_TYPE":"U","MEAN_MOTION_DOT":"0.00000238","OBJECT_TYPE":"PAYLOAD","SEMIMAJOR_AXIS":"6925.347","EPHEMERIS_TYPE":"0","PERIAPSIS":"546.010","FILE":"3705029","REF_FRAME":"TEME"},{"PERIAPSIS":"545.878","REF_FRAME":"TEME","FILE":"3705029","MEAN_MOTION_DOT":"0.00001366","OBJECT_TYPE":"PAYLOAD","SEMIMAJOR_AXIS":"6925.350","EPHEMERIS_TYPE":"0","RA_OF_ASC_NODE":"319.6961","ELEMENT_SET_NO":"999","MEAN_MOTION_DDOT":"0.0000000000000","CLASSIFICATION_TYPE":"U","TLE_LINE2":"2 45668  53.0567 319.6961 0001930  51.2282 308.8879 15.06399594141027","GP_ID":"220659052","OBJECT_ID":"2020-035M","CENTER_NAME":"EARTH","REV_AT_EPOCH":"14102","OBJECT_NAME":"STARLINK-1451","ARG_OF_PERICENTER":"51.2282","TLE_LINE1":"1 45668U 20035M   22350.61624665  .00001366  00000-0  11058-3 0  9991","ECCENTRICITY":"0.00019300","BSTAR":"0.00011058000000","DECAY_DATE":null,"PERIOD":"95.592","INCLINATION":"53.0567","APOAPSIS":"548.551","LAUNCH_DATE":"2020-06-04","MEAN_ELEMENT_THEORY":"SGP4","MEAN_MOTION":"15.06399594","COUNTRY_CODE":"US","RCS_SIZE":"LARGE","TIME_SYSTEM":"UTC","SITE":"AFETR","NORAD_CAT_ID":"45668","MEAN_ANOMALY":"308.8879","EPOCH":"2022-12-16T14:47:23.710560"},{"ELEMENT_SET_NO":"999","MEAN_MOTION_DDOT":"0.0000000000000","CLASSIFICATION_TYPE":"U","RA_OF_ASC_NODE":"320.6590","OBJECT_NAME":"STARLINK-1452","ARG_OF_PERICENTER":"62.8421","TLE_LINE2":"2 45669  53.0565 320.6590 0001542  62.8421 297.2725 15.06403090140980","GP_ID":"220581411","OBJECT_ID":"2020-035N","CENTER_NAME":"EARTH","REV_AT_EPOCH":"14098","REF_FRAME":"TEME","FILE":"3702730","PERIAPSIS":"546.136","EPHEMERIS_TYPE":"0","MEAN_MOTION_DOT":"-0.00000027","OBJECT_TYPE":"PAYLOAD","SEMIMAJOR_AXIS":"6925.339","COUNTRY_CODE":"US","MEAN_MOTION":"15.06403090","RCS_SIZE":"LARGE","SITE":"AFETR","NORAD_CAT_ID":"45669","MEAN_ANOMALY":"297.2725","TIME_SYSTEM":"UTC","EPOCH":"2022-12-16T09:35:36.053376","DECAY_DATE":null,"PERIOD":"95.592","TLE_LINE1":"1 45669U 20035N   22350.39972284 -.00000027  00000-0  17062-4 0  9996","ECCENTRICITY":"0.00015420","BSTAR":"0.00001706200000","APOAPSIS":"548.272","MEAN_ELEMENT_THEORY":"SGP4","LAUNCH_DATE":"2020-06-04","INCLINATION":"53.0565"},{"MEAN_MOTION":"15.06395168","COUNTRY_CODE":"US","EPOCH":"2022-12-16T20:32:25.738080","NORAD_CAT_ID":"45670","SITE":"AFETR","MEAN_ANOMALY":"280.6432","TIME_SYSTEM":"UTC","RCS_SIZE":"LARGE","BSTAR":"-0.00007421900000","ECCENTRICITY":"0.00014780","TLE_LINE1":"1 45670U 20035P   22350.85585345 -.00001387  00000-0 -74219-4 0  9995","PERIOD":"95.592","DECAY_DATE":null,"INCLINATION":"53.0543","MEAN_ELEMENT_THEORY":"SGP4","LAUNCH_DATE":"2020-06-04","APOAPSIS":"548.252","RA_OF_ASC_NODE":"288.6196","CLASSIFICATION_TYPE":"U","ELEMENT_SET_NO":"999","MEAN_MOTION_DDOT":"0.0000000000000","REV_AT_EPOCH":"14136","CENTER_NAME":"EARTH","OBJECT_ID":"2020-035P","GP_ID":"220660050","TLE_LINE2":"2 45670  53.0543 288.6196 0001478  79.4724 280.6432 15.06395168141361","OBJECT_NAME":"STARLINK-1453","ARG_OF_PERICENTER":"79.4724","PERIAPSIS":"546.205","FILE":"3705029","REF_FRAME":"TEME","SEMIMAJOR_AXIS":"6925.363","OBJECT_TYPE":"PAYLOAD","MEAN_MOTION_DOT":"-0.00001387","EPHEMERIS_TYPE":"0"},{"PERIOD":"95.593","DECAY_DATE":null,"ECCENTRICITY":"0.00015940","BSTAR":"-0.00003348300000","TLE_LINE1":"1 45671U 20035Q   22350.40341906 -.00000780  00000-0 -33483-4 0  9994","LAUNCH_DATE":"2020-06-04","MEAN_ELEMENT_THEORY":"SGP4","APOAPSIS":"548.358","INCLINATION":"53.0573","COUNTRY_CODE":"US","MEAN_MOTION":"15.06386916","EPOCH":"2022-12-16T09:40:55.406784","RCS_SIZE":"LARGE","SITE":"AFETR","NORAD_CAT_ID":"45671","MEAN_ANOMALY":"293.8970","TIME_SYSTEM":"UTC","FILE":"3704577","REF_FRAME":"TEME","PERIAPSIS":"546.150","EPHEMERIS_TYPE":"0","OBJECT_TYPE":"PAYLOAD","MEAN_MOTION_DOT":"-0.00000780","SEMIMAJOR_AXIS":"6925.389","MEAN_MOTION_DDOT":"0.0000000000000","ELEMENT_SET_NO":"999","CLASSIFICATION_TYPE":"U","RA_OF_ASC_NODE":"320.6413","ARG_OF_PERICENTER":"66.2186","OBJECT_NAME":"STARLINK-1454","CENTER_NAME":"EARTH","REV_AT_EPOCH":"14057","TLE_LINE2":"2 45671  53.0573 320.6413 0001594  66.2186 293.8970 15.06386916140575","OBJECT_ID":"2020-035Q","GP_ID":"220629155"}];
